{
    "satellites": [
        {
            "name": "starlink321",
            "title": "Starlink-321 (G6-87) (new)",
            "tle": [
                "1 70817C 25259AE  25321.10395833 -.01356500  00000+0 -29977-2 0  3217",
                "2 70817  43.0005 200.5362 0001804 275.4782 107.3283 15.98352693    19"
            ],
            "stdMag": 5,
            "noradId": "70817",
            "tleUrl": "http://celestrak.org/NORAD/elements/supplemental/sup-gp.php?FILE=starlink&FORMAT=tle",
            "launchDate": "2025-11-11T03:21:30.000Z",
            "active": true,
            "batch": [
                {
                    "noradId": "70817",
                    "tle": [
                        "1 70817C 25259AE  25321.10395833 -.01356500  00000+0 -29977-2 0  3217",
                        "2 70817  43.0005 200.5362 0001804 275.4782 107.3283 15.98352693    19"
                    ]
                },
                {
                    "noradId": "70816",
                    "tle": [
                        "1 70816C 25259AD  25321.10395833 -.01352600  00000+0 -30050-2 0  3217",
                        "2 70816  43.0007 200.5404 0001656 259.5550 121.6244 15.98252439    11"
                    ]
                },
                {
                    "noradId": "70815",
                    "tle": [
                        "1 70815C 25259AC  25321.10326389 -.01350400  00000+0 -30140-2 0  3212",
                        "2 70815  43.0010 200.5487 0001852 274.3006 101.3813 15.98165811    18"
                    ]
                },
                {
                    "noradId": "70814",
                    "tle": [
                        "1 70814C 25259AB  25321.10326389 -.01345600  00000+0 -30158-2 0  3216",
                        "2 70814  43.0006 200.5519 0001827 267.3858 106.9462 15.98086108    19"
                    ]
                },
                {
                    "noradId": "70811",
                    "tle": [
                        "1 70811C 25259Y   25321.10326389 -.01345000  00000+0 -30293-2 0  3217",
                        "2 70811  43.0009 200.5558 0001858 273.0082  99.7880 15.97995695    11"
                    ]
                },
                {
                    "noradId": "70813",
                    "tle": [
                        "1 70813C 25259AA  25321.11159722 -.01345700  00000+0 -30459-2 0  3216",
                        "2 70813  43.0006 200.5067 0001751 274.6077 144.9665 15.97907246    17"
                    ]
                },
                {
                    "noradId": "70812",
                    "tle": [
                        "1 70812C 25259Z   25321.11229167 -.01342800  00000+0 -30534-2 0  3218",
                        "2 70812  43.0007 200.5062 0001750 274.7024 147.4066 15.97820578    19"
                    ]
                },
                {
                    "noradId": "70810",
                    "tle": [
                        "1 70810C 25259X   25321.11159722 -.01334800  00000+0 -30507-2 0  3216",
                        "2 70810  43.0010 200.5150 0001727 268.2168 148.2489 15.97720942    12"
                    ]
                },
                {
                    "noradId": "70809",
                    "tle": [
                        "1 70809C 25259W   25321.11159722 -.01332400  00000+0 -30563-2 0  3210",
                        "2 70809  43.0011 200.5181 0001741 268.4335 146.8164 15.97651639    19"
                    ]
                },
                {
                    "noradId": "70808",
                    "tle": [
                        "1 70808C 25259V   25321.10187500 -.01328800  00000+0 -30572-2 0  3212",
                        "2 70808  43.0008 200.5826 0001841 274.6757  83.1506 15.97591877    18"
                    ]
                },
                {
                    "noradId": "70807",
                    "tle": [
                        "1 70807C 25259U   25321.10187500 -.01326500  00000+0 -30661-2 0  3215",
                        "2 70807  43.0011 200.5865 0001833 274.3364  82.0005 15.97506036    11"
                    ]
                },
                {
                    "noradId": "70805",
                    "tle": [
                        "1 70805C 25259S   25321.11090278 -.01323000  00000+0 -30744-2 0  3213",
                        "2 70805  43.0009 200.5333 0001758 276.7175 130.2484 15.97405102    17"
                    ]
                },
                {
                    "noradId": "70804",
                    "tle": [
                        "1 70804C 25259R   25321.11020833 -.01319600  00000+0 -30788-2 0  3211",
                        "2 70804  43.0007 200.5408 0001793 277.3398 124.2736 15.97327966    14"
                    ]
                },
                {
                    "noradId": "70803",
                    "tle": [
                        "1 70803C 25259Q   25321.10951389 -.01317500  00000+0 -30875-2 0  3212",
                        "2 70803  43.0008 200.5489 0001788 276.1932 119.9348 15.97246073    17"
                    ]
                },
                {
                    "noradId": "70806",
                    "tle": [
                        "1 70806C 25259T   25321.10951389 -.01310900  00000+0 -30865-2 0  3211",
                        "2 70806  43.0014 200.5535 0001779 276.7030 117.8955 15.97153693    10"
                    ]
                },
                {
                    "noradId": "70802",
                    "tle": [
                        "1 70802C 25259P   25321.10951389 -.01311500  00000+0 -30984-2 0  3216",
                        "2 70802  43.0007 200.5562 0001764 276.9612 116.4431 15.97091796    19"
                    ]
                },
                {
                    "noradId": "70801",
                    "tle": [
                        "1 70801C 25259N   25321.10951389 -.01307600  00000+0 -31005-2 0  3216",
                        "2 70801  43.0008 200.5589 0001784 276.2025 115.9583 15.97019538    17"
                    ]
                },
                {
                    "noradId": "70800",
                    "tle": [
                        "1 70800C 25259M   25321.10881944 -.01305700  00000+0 -31097-2 0  3214",
                        "2 70800  43.0005 200.5671 0001769 276.5518 110.0872 15.96937092    18"
                    ]
                },
                {
                    "noradId": "70799",
                    "tle": [
                        "1 70799C 25259L   25321.10881944 -.01302000  00000+0 -31153-2 0  3214",
                        "2 70799  43.0001 200.5704 0001765 277.1260 107.9367 15.96848268    15"
                    ]
                },
                {
                    "noradId": "70798",
                    "tle": [
                        "1 70798C 25259K   25321.10881944 -.01296600  00000+0 -31174-2 0  3214",
                        "2 70798  43.0003 200.5746 0001790 277.4290 106.0093 15.96753878    14"
                    ]
                },
                {
                    "noradId": "70797",
                    "tle": [
                        "1 70797C 25259J   25321.10881944 -.01291800  00000+0 -31182-2 0  3219",
                        "2 70797  43.0008 200.5787 0001773 277.2215 104.8644 15.96676367    14"
                    ]
                },
                {
                    "noradId": "70796",
                    "tle": [
                        "1 70796C 25259H   25321.10881944 -.01287000  00000+0 -31216-2 0  3213",
                        "2 70796  43.0003 200.5825 0001711 258.9259 121.5236 15.96582011    12"
                    ]
                },
                {
                    "noradId": "70795",
                    "tle": [
                        "1 70795C 25259G   25321.10812500 -.01283100  00000+0 -31265-2 0  3215",
                        "2 70795  43.0005 200.5911 0001668 258.5858 116.2588 15.96493977    14"
                    ]
                },
                {
                    "noradId": "70794",
                    "tle": [
                        "1 70794C 25259F   25321.10812500 -.01275300  00000+0 -31226-2 0  3214",
                        "2 70794  43.0006 200.5954 0001682 258.3343 114.8545 15.96396158    14"
                    ]
                },
                {
                    "noradId": "70793",
                    "tle": [
                        "1 70793C 25259E   25321.10812500 -.01271700  00000+0 -31259-2 0  3219",
                        "2 70793  43.0009 200.5991 0001691 258.7811 113.0511 15.96321240    15"
                    ]
                },
                {
                    "noradId": "70792",
                    "tle": [
                        "1 70792C 25259D   25321.10743056 -.01268200  00000+0 -31293-2 0  3216",
                        "2 70792  43.0003 200.6064 0001721 258.1082 108.3532 15.96247081    18"
                    ]
                },
                {
                    "noradId": "70791",
                    "tle": [
                        "1 70791C 25259C   25321.10743056 -.01264100  00000+0 -31338-2 0  3210",
                        "2 70791  43.0009 200.6115 0001795 274.0686  90.7218 15.96156023    18"
                    ]
                },
                {
                    "noradId": "70790",
                    "tle": [
                        "1 70790C 25259B   25321.10743056 -.01258600  00000+0 -31318-2 0  3215",
                        "2 70790  43.0008 200.6142 0001854 274.9856  88.5170 15.96081361    14"
                    ]
                },
                {
                    "noradId": "70789",
                    "tle": [
                        "1 70789C 25259A   25321.10743056 -.01256400  00000+0 -31357-2 0  3212",
                        "2 70789  43.0007 200.6168 0001744 256.6677 105.7413 15.96022975    13"
                    ]
                }
            ]
        }
    ],
    "config": {}
}